start=new Date('2022-02-05T00:00:00.000Z').valueOf();
sats=[{"ELEMENT_SET_NO":"999","RCS_SIZE":"LARGE","OBJECT_NAME":"STARLINK-2514","BSTAR":"0.00055870000000","EPHEMERIS_TYPE":"0","ECCENTRICITY":"0.00017410","MEAN_MOTION_DDOT":"0.0000000000000","ARG_OF_PERICENTER":"72.9080","TIME_SYSTEM":"UTC","CLASSIFICATION_TYPE":"U","OBJECT_TYPE":"PAYLOAD","EPOCH":"2022-02-04T19:27:31.430016","MEAN_ANOMALY":"287.2100","MEAN_ELEMENT_THEORY":"SGP4","GP_ID":"195306245","NORAD_CAT_ID":"48331","SEMIMAJOR_AXIS":"6925.273","MEAN_MOTION_DOT":"0.00008055","DECAY_DATE":null,"RA_OF_ASC_NODE":"327.9052","TLE_LINE2":"2 48331  53.0558 327.9052 0001741  72.9080 287.2100 15.06424745 43469","REV_AT_EPOCH":"4346","FILE":"3291999","MEAN_MOTION":"15.06424745","APOAPSIS":"548.343","SITE":"AFETR","LAUNCH_DATE":"2021-04-29","PERIOD":"95.591","PERIAPSIS":"545.932","TLE_LINE1":"1 48331U 21036BH  22035.81078044  .00008055  00000-0  55870-3 0  9991","COUNTRY_CODE":"US","OBJECT_ID":"2021-036BH","REF_FRAME":"TEME","INCLINATION":"53.0558","CENTER_NAME":"EARTH"},{"TIME_SYSTEM":"UTC","ARG_OF_PERICENTER":"59.5201","OBJECT_TYPE":"PAYLOAD","EPOCH":"2022-02-04T17:50:37.241376","CLASSIFICATION_TYPE":"U","MEAN_ANOMALY":"300.5937","RCS_SIZE":"LARGE","OBJECT_NAME":"STARLINK-2511","ELEMENT_SET_NO":"999","EPHEMERIS_TYPE":"0","BSTAR":"0.00031889000000","ECCENTRICITY":"0.00015080","MEAN_MOTION_DDOT":"0.0000000000000","PERIAPSIS":"546.134","LAUNCH_DATE":"2021-04-29","PERIOD":"95.591","TLE_LINE1":"1 48332U 21036BJ  22035.74348659  .00004473  00000-0  31889-3 0  9990","OBJECT_ID":"2021-036BJ","REF_FRAME":"TEME","COUNTRY_CODE":"US","INCLINATION":"53.0537","CENTER_NAME":"EARTH","SEMIMAJOR_AXIS":"6925.313","NORAD_CAT_ID":"48332","MEAN_MOTION_DOT":"0.00004473","GP_ID":"195305445","MEAN_ELEMENT_THEORY":"SGP4","DECAY_DATE":null,"FILE":"3291984","MEAN_MOTION":"15.06411536","APOAPSIS":"548.223","RA_OF_ASC_NODE":"328.2103","TLE_LINE2":"2 48332  53.0537 328.2103 0001508  59.5201 300.5937 15.06411536 43455","REV_AT_EPOCH":"4345","SITE":"AFETR"},{"TIME_SYSTEM":"UTC","ARG_OF_PERICENTER":"66.9528","MEAN_ANOMALY":"293.1624","OBJECT_TYPE":"PAYLOAD","CLASSIFICATION_TYPE":"U","EPOCH":"2022-02-04T12:54:45.784224","EPHEMERIS_TYPE":"0","BSTAR":"0.00018089000000","OBJECT_NAME":"STARLINK-2518","RCS_SIZE":"LARGE","ELEMENT_SET_NO":"999","MEAN_MOTION_DDOT":"0.0000000000000","ECCENTRICITY":"0.00015460","TLE_LINE1":"1 48333U 21036BK  22035.53802991  .00002414  00000-0  18089-3 0  9992","PERIAPSIS":"546.127","LAUNCH_DATE":"2021-04-29","PERIOD":"95.592","INCLINATION":"53.0549","CENTER_NAME":"EARTH","OBJECT_ID":"2021-036BK","REF_FRAME":"TEME","COUNTRY_CODE":"US","DECAY_DATE":null,"SEMIMAJOR_AXIS":"6925.332","NORAD_CAT_ID":"48333","MEAN_MOTION_DOT":"0.00002414","MEAN_ELEMENT_THEORY":"SGP4","GP_ID":"195300486","SITE":"AFETR","MEAN_MOTION":"15.06405280","FILE":"3291889","APOAPSIS":"548.268","RA_OF_ASC_NODE":"329.1253","REV_AT_EPOCH":"4283","TLE_LINE2":"2 48333  53.0549 329.1253 0001546  66.9528 293.1624 15.06405280 42831"},{"ARG_OF_PERICENTER":"63.7713","TIME_SYSTEM":"UTC","OBJECT_TYPE":"PAYLOAD","CLASSIFICATION_TYPE":"U","EPOCH":"2022-02-04T12:49:27.038208","MEAN_ANOMALY":"296.3473","OBJECT_NAME":"STARLINK-2470","RCS_SIZE":"LARGE","ELEMENT_SET_NO":"999","EPHEMERIS_TYPE":"0","BSTAR":"0.00045985000000","ECCENTRICITY":"0.00019160","MEAN_MOTION_DDOT":"0.0000000000000","PERIAPSIS":"545.834","LAUNCH_DATE":"2021-04-29","PERIOD":"95.591","TLE_LINE1":"1 48334U 21036BL  22035.53434072  .00006578  00000-0  45985-3 0  9994","OBJECT_ID":"2021-036BL","REF_FRAME":"TEME","COUNTRY_CODE":"US","INCLINATION":"53.0537","CENTER_NAME":"EARTH","NORAD_CAT_ID":"48334","SEMIMAJOR_AXIS":"6925.296","MEAN_MOTION_DOT":"0.00006578","GP_ID":"195299242","MEAN_ELEMENT_THEORY":"SGP4","DECAY_DATE":null,"MEAN_MOTION":"15.06417177","FILE":"3291889","APOAPSIS":"548.488","RA_OF_ASC_NODE":"329.1437","REV_AT_EPOCH":"4283","TLE_LINE2":"2 48334  53.0537 329.1437 0001916  63.7713 296.3473 15.06417177 42830","SITE":"AFETR"},{"RA_OF_ASC_NODE":"327.9769","TLE_LINE2":"2 48335  53.0547 327.9769 0001435  85.3039 274.8114 15.06426828 43469","REV_AT_EPOCH":"4346","FILE":"3292072","MEAN_MOTION":"15.06426828","APOAPSIS":"548.125","SITE":"AFETR","GP_ID":"195307421","MEAN_ELEMENT_THEORY":"SGP4","SEMIMAJOR_AXIS":"6925.266","NORAD_CAT_ID":"48335","MEAN_MOTION_DOT":"0.00012921","DECAY_DATE":null,"COUNTRY_CODE":"US","OBJECT_ID":"2021-036BM","REF_FRAME":"TEME","INCLINATION":"53.0547","CENTER_NAME":"EARTH","LAUNCH_DATE":"2021-04-29","PERIOD":"95.590","PERIAPSIS":"546.138","TLE_LINE1":"1 48335U 21036BM  22035.79604320  .00012921  00000-0  88412-3 0  9999","ECCENTRICITY":"0.00014350","MEAN_MOTION_DDOT":"0.0000000000000","RCS_SIZE":"LARGE","ELEMENT_SET_NO":"999","OBJECT_NAME":"STARLINK-2441","BSTAR":"0.00088412000000","EPHEMERIS_TYPE":"0","CLASSIFICATION_TYPE":"U","OBJECT_TYPE":"PAYLOAD","EPOCH":"2022-02-04T19:06:18.132480","MEAN_ANOMALY":"274.8114","ARG_OF_PERICENTER":"85.3039","TIME_SYSTEM":"UTC"},{"TLE_LINE1":"1 48353U 21038A   22035.80158418 -.00000943  00000-0 -44444-4 0  9996","PERIOD":"95.592","LAUNCH_DATE":"2021-05-04","PERIAPSIS":"546.152","CENTER_NAME":"EARTH","INCLINATION":"53.0544","COUNTRY_CODE":"US","REF_FRAME":"TEME","OBJECT_ID":"2021-038A","DECAY_DATE":null,"MEAN_ELEMENT_THEORY":"SGP4","GP_ID":"195308468","MEAN_MOTION_DOT":"-0.00000943","SEMIMAJOR_AXIS":"6925.364","NORAD_CAT_ID":"48353","SITE":"AFETR","REV_AT_EPOCH":"4245","TLE_LINE2":"2 48353  53.0544 227.9508 0001556  74.1609 285.9551 15.06394852 42456","RA_OF_ASC_NODE":"227.9508","APOAPSIS":"548.307","FILE":"3292099","MEAN_MOTION":"15.06394852","TIME_SYSTEM":"UTC","ARG_OF_PERICENTER":"74.1609","MEAN_ANOMALY":"285.9551","OBJECT_TYPE":"PAYLOAD","CLASSIFICATION_TYPE":"U","EPOCH":"2022-02-04T19:14:16.873152","BSTAR":"-0.00004444400000","EPHEMERIS_TYPE":"0","ELEMENT_SET_NO":"999","RCS_SIZE":"LARGE","OBJECT_NAME":"STARLINK-2613","MEAN_MOTION_DDOT":"0.0000000000000","ECCENTRICITY":"0.00015560"},{"PERIAPSIS":"545.920","LAUNCH_DATE":"2021-05-04","PERIOD":"95.591","TLE_LINE1":"1 48354U 21038B   22035.79790014  .00003648  00000-0  26361-3 0  9999","OBJECT_ID":"2021-038B","REF_FRAME":"TEME","COUNTRY_CODE":"US","INCLINATION":"53.0548","CENTER_NAME":"EARTH","NORAD_CAT_ID":"48354","SEMIMAJOR_AXIS":"6925.314","MEAN_MOTION_DOT":"0.00003648","GP_ID":"195306222","MEAN_ELEMENT_THEORY":"SGP4","DECAY_DATE":null,"MEAN_MOTION":"15.06411155","FILE":"3291997","APOAPSIS":"548.438","RA_OF_ASC_NODE":"227.9604","TLE_LINE2":"2 48354  53.0548 227.9604 0001818  78.1485 281.9707 15.06411155 42450","REV_AT_EPOCH":"4245","SITE":"AFETR","TIME_SYSTEM":"UTC","ARG_OF_PERICENTER":"78.1485","EPOCH":"2022-02-04T19:08:58.572096","OBJECT_TYPE":"PAYLOAD","CLASSIFICATION_TYPE":"U","MEAN_ANOMALY":"281.9707","ELEMENT_SET_NO":"999","RCS_SIZE":"LARGE","OBJECT_NAME":"STARLINK-2674","EPHEMERIS_TYPE":"0","BSTAR":"0.00026361000000","ECCENTRICITY":"0.00018180","MEAN_MOTION_DDOT":"0.0000000000000"},{"RCS_SIZE":"LARGE","ELEMENT_SET_NO":"999","OBJECT_NAME":"STARLINK-2635","EPHEMERIS_TYPE":"0","BSTAR":"0.00014274000000","ECCENTRICITY":"0.00018470","MEAN_MOTION_DDOT":"0.0000000000000","TIME_SYSTEM":"UTC","ARG_OF_PERICENTER":"78.7173","OBJECT_TYPE":"PAYLOAD","EPOCH":"2022-02-04T12:41:30.791040","CLASSIFICATION_TYPE":"U","MEAN_ANOMALY":"281.4023","MEAN_MOTION_DOT":"0.00001845","SEMIMAJOR_AXIS":"6925.366","NORAD_CAT_ID":"48355","GP_ID":"195299493","MEAN_ELEMENT_THEORY":"SGP4","DECAY_DATE":null,"APOAPSIS":"548.510","MEAN_MOTION":"15.06394247","FILE":"3291889","TLE_LINE2":"2 48355  53.0530 229.1735 0001847  78.7173 281.4023 15.06394247 41821","REV_AT_EPOCH":"4182","RA_OF_ASC_NODE":"229.1735","SITE":"AFETR","PERIAPSIS":"545.952","PERIOD":"95.593","LAUNCH_DATE":"2021-05-04","TLE_LINE1":"1 48355U 21038C   22035.52882860  .00001845  00000-0  14274-3 0  9999","REF_FRAME":"TEME","OBJECT_ID":"2021-038C","COUNTRY_CODE":"US","CENTER_NAME":"EARTH","INCLINATION":"53.0530"},{"REV_AT_EPOCH":"4182","TLE_LINE2":"2 48356  53.0562 229.1898 0001589  70.4329 289.6831 15.06400406 41824","RA_OF_ASC_NODE":"229.1898","APOAPSIS":"548.313","MEAN_MOTION":"15.06400406","FILE":"3291889","SITE":"AFETR","MEAN_ELEMENT_THEORY":"SGP4","GP_ID":"195299744","MEAN_MOTION_DOT":"0.00002471","SEMIMAJOR_AXIS":"6925.347","NORAD_CAT_ID":"48356","DECAY_DATE":null,"COUNTRY_CODE":"US","REF_FRAME":"TEME","OBJECT_ID":"2021-038D","CENTER_NAME":"EARTH","INCLINATION":"53.0562","PERIOD":"95.592","LAUNCH_DATE":"2021-05-04","PERIAPSIS":"546.112","TLE_LINE1":"1 48356U 21038D   22035.52513990  .00002471  00000-0  18474-3 0  9997","ECCENTRICITY":"0.00015890","MEAN_MOTION_DDOT":"0.0000000000000","RCS_SIZE":"LARGE","OBJECT_NAME":"STARLINK-2637","ELEMENT_SET_NO":"999","BSTAR":"0.00018474000000","EPHEMERIS_TYPE":"0","CLASSIFICATION_TYPE":"U","OBJECT_TYPE":"PAYLOAD","EPOCH":"2022-02-04T12:36:12.087360","MEAN_ANOMALY":"289.6831","TIME_SYSTEM":"UTC","ARG_OF_PERICENTER":"70.4329"},{"OBJECT_TYPE":"PAYLOAD","CLASSIFICATION_TYPE":"U","EPOCH":"2022-02-04T12:30:53.036352","MEAN_ANOMALY":"281.9184","TIME_SYSTEM":"UTC","ARG_OF_PERICENTER":"78.2004","ECCENTRICITY":"0.00017760","MEAN_MOTION_DDOT":"0.0000000000000","ELEMENT_SET_NO":"999","RCS_SIZE":"LARGE","OBJECT_NAME":"STARLINK-2636","BSTAR":"0.00023858000000","EPHEMERIS_TYPE":"0","COUNTRY_CODE":"US","OBJECT_ID":"2021-038E","REF_FRAME":"TEME","INCLINATION":"53.0537","CENTER_NAME":"EARTH","LAUNCH_DATE":"2021-05-04","PERIOD":"95.591","PERIAPSIS":"545.951","TLE_LINE1":"1 48357U 21038E   22035.52144718  .00003275  00000-0  23858-3 0  9991","RA_OF_ASC_NODE":"229.2000","REV_AT_EPOCH":"4182","TLE_LINE2":"2 48357  53.0537 229.2000 0001776  78.2004 281.9184 15.06410505 41824","MEAN_MOTION":"15.06410505","FILE":"3291889","APOAPSIS":"548.411","SITE":"AFETR","GP_ID":"195299989","MEAN_ELEMENT_THEORY":"SGP4","SEMIMAJOR_AXIS":"6925.316","NORAD_CAT_ID":"48357","MEAN_MOTION_DOT":"0.00003275","DECAY_DATE":null}];
